[Satellite]
VERSION=1.1
NAME=RASAT
NICKNAME=RASAT
TLE1=1 37791U 11044D   15055.46553443  .00000428  00000-0  90287-4 0  9991
TLE2=2 37791  98.1643 144.6841 0020978 254.2284 105.6607 14.64262467188285
